     2.100          NAVIGATION                              RINEX VERSION / TYPE
fic2rin                                 02/23/2016 00:11:38 PGM / RUN BY / DATE
                                                            END OF HEADER
31 16  2 22 10  0  0.0  .281543470919D-03 -.170530256582D-11  .000000000000D+00
     .520000000000D+02 -.395000000000D+02  .406445501515D-08  .307703333413D+01
    -.198371708393D-05  .831149634905D-02  .110920518637D-04  .515370088768D+04
     .122400000000D+06 -.130385160446D-07  .263929965500D+01  .447034835815D-07
     .972375929189D+00  .172843750000D+03 -.424423749078D+00 -.767496255014D-08
    -.588595945955D-09  .100000000000D+01  .188500000000D+04  .000000000000D+00
     .240000000000D+01  .000000000000D+00 -.135041773319D-07  .520000000000D+02
     .115206000000D+06  .400000000000D+01
32 16  2 22 10  0  0.0  .650715082884D-05  .579802872380D-11  .000000000000D+00
     .660000000000D+02  .665625000000D+01  .485805950054D-08 -.133930917165D+01
     .348314642906D-06  .175019144081D-03  .382959842682D-05  .517914764023D+04
     .122400000000D+06 -.372529029846D-07  .155314119212D+01 -.372529029846D-08
     .959745110585D+00  .301843750000D+03 -.692352620751D-01 -.812355266429D-08
    -.232152527227D-10  .100000000000D+01  .188500000000D+04  .000000000000D+00
     .485000000000D+01  .630000000000D+02  .279396772385D-08  .660000000000D+02
     .115206000000D+06  .400000000000D+01
 3 16  2 22  9 59 44.0 -.276770442724D-04 -.466116034659D-11  .000000000000D+00
     .000000000000D+00  .305937500000D+02  .440804075545D-08  .104942639076D+00
     .151805579662D-05  .266197603196D-03  .106114894152D-04  .515376573181D+04
     .122384000000D+06 -.316649675369D-07  .511747541162D+00 -.260770320892D-07
     .959581772855D+00  .172281250000D+03  .312511448917D+01 -.791140097018D-08
     .405374028313D-09  .100000000000D+01  .188500000000D+04  .000000000000D+00
     .240000000000D+01  .000000000000D+00  .186264514923D-08  .000000000000D+00
     .117756000000D+06  .400000000000D+01
32 16  2 22  9 59 44.0  .650016590953D-05  .579802872380D-11  .000000000000D+00
     .370000000000D+02  .665625000000D+01  .485841665827D-08 -.134145672807D+01
     .348314642906D-06  .175038818270D-03  .382959842682D-05  .517914764595D+04
     .122384000000D+06 -.372529029846D-07  .155314131208D+01 -.372529029846D-08
     .959745101807D+00  .301843750000D+03 -.693871641739D-01 -.812355266429D-08
    -.232152527227D-10  .100000000000D+01  .188500000000D+04  .000000000000D+00
     .240000000000D+01  .630000000000D+02  .279396772385D-08  .370000000000D+02
     .117816000000D+06  .400000000000D+01
13 16  2 22  9 59 44.0 -.186944846064D-03 -.250111042988D-11  .000000000000D+00
     .000000000000D+00 -.120000000000D+02  .467733768703D-08 -.219834138551D+01
    -.637024641037D-06  .465301540680D-02  .419281423092D-05  .515367331123D+04
     .122384000000D+06  .223517417908D-07  .167168153186D+01  .968575477600D-07
     .971591939687D+00  .304437500000D+03  .198368770686D+01 -.817284043161D-08
    -.198579700213D-09  .100000000000D+01  .188500000000D+04  .000000000000D+00
     .240000000000D+01  .000000000000D+00 -.111758708954D-07  .000000000000D+00
     .118716000000D+06  .400000000000D+01
14 16  2 22  9 59 28.0  .160560011864D-05 -.227373675443D-11  .000000000000D+00
     .200000000000D+01 -.253125000000D+01  .500663711796D-08 -.375327776537D+00
    -.763684511185D-07  .833733857144D-02  .400654971600D-05  .515371662903D+04
     .122368000000D+06 -.372529029846D-07  .163523160251D+01  .113621354103D-06
     .964082624654D+00  .306125000000D+03 -.195161754212D+01 -.853392690088D-08
    -.867893294096D-10  .100000000000D+01  .188500000000D+04  .000000000000D+00
     .240000000000D+01  .000000000000D+00 -.931322574615D-08  .200000000000D+01
     .120456000000D+06  .400000000000D+01
14 16  2 22 11 59 28.0  .158930197358D-05 -.227373675443D-11  .000000000000D+00
     .300000000000D+01 -.140625000000D+01  .498842207352D-08  .674823826607D+00
    -.316649675369D-07  .833769328892D-02  .416301190853D-05  .515371731758D+04
     .129568000000D+06 -.115483999252D-06  .163517073926D+01  .223517417908D-07
     .964081733737D+00  .303906250000D+03 -.195161155001D+01 -.850714007082D-08
    -.178221709364D-09  .100000000000D+01  .188500000000D+04  .000000000000D+00
     .240000000000D+01  .000000000000D+00 -.931322574615D-08  .300000000000D+01
     .122406000000D+06  .400000000000D+01
 3 16  2 22 11 59 44.0 -.277105718851D-04 -.466116034659D-11  .000000000000D+00
     .220000000000D+02  .256250000000D+02  .449840166220D-08  .115640396059D+01
     .142492353916D-05  .265358597971D-03  .108573585749D-04  .515376406288D+04
     .129584000000D+06  .353902578354D-07  .511690225495D+00 -.707805156708D-07
     .959584635786D+00  .167187500000D+03  .312377819543D+01 -.795604568695D-08
     .446090010011D-09  .100000000000D+01  .188500000000D+04  .000000000000D+00
     .240000000000D+01  .000000000000D+00  .186264514923D-08  .220000000000D+02
     .122406000000D+06  .400000000000D+01
13 16  2 22 11 59 44.0 -.186962541193D-03 -.250111042988D-11  .000000000000D+00
     .100000000000D+01 -.878125000000D+01  .479805700119D-08 -.114802610671D+01
    -.381842255592D-06  .465300620999D-02  .389292836189D-05  .515367448044D+04
     .129584000000D+06 -.819563865662D-07  .167162171460D+01 -.521540641785D-07
     .971589910620D+00  .307468750000D+03  .198355506408D+01 -.834463330176D-08
    -.151077721565D-09  .100000000000D+01  .188500000000D+04  .000000000000D+00
     .240000000000D+01  .000000000000D+00 -.111758708954D-07  .100000000000D+01
     .122406000000D+06  .400000000000D+01
32 16  2 22 11 59 44.0  .654160976410D-05  .568434188608D-11  .000000000000D+00
     .380000000000D+02  .512500000000D+01  .486913139030D-08 -.305735057744D+00
     .221654772758D-06  .175185268745D-03  .383332371712D-05  .517914807129D+04
     .129584000000D+06 -.558793544769D-08  .155308286996D+01 -.111758708954D-07
     .959744807761D+00  .301406250000D+03 -.703452189836D-01 -.813498171178D-08
    -.421446126351D-10  .100000000000D+01  .188500000000D+04  .000000000000D+00
     .240000000000D+01  .630000000000D+02  .279396772385D-08  .380000000000D+02
     .122406000000D+06  .400000000000D+01
 1 16  2 22 12  0  0.0  .124252401292D-04  .102318153949D-11  .000000000000D+00
     .440000000000D+02 -.112062500000D+03  .442768443083D-08 -.138898712372D+01
    -.586733222008D-05  .508685072418D-02  .892579555511D-05  .515365722466D+04
     .129600000000D+06  .949949026108D-07 -.528990252899D+00 -.113621354103D-06
     .964095526128D+00  .208812500000D+03  .462043465759D+00 -.801211945122D-08
    -.283940398686D-09  .100000000000D+01  .188500000000D+04  .000000000000D+00
     .240000000000D+01  .000000000000D+00  .512227416039D-08  .440000000000D+02
     .122406000000D+06  .400000000000D+01
 2 16  2 22 12  0  0.0  .599509570748D-03 -.113686837722D-12  .000000000000D+00
     .116000000000D+03 -.973125000000D+02  .507342561426D-08 -.924728783900D+00
    -.482052564621D-05  .154724058229D-01  .822357833385D-05  .515372912598D+04
     .129600000000D+06  .633299350739D-07 -.572430136493D+00  .359490513802D-06
     .942794432407D+00  .211031250000D+03 -.216081367614D+01 -.843820862812D-08
    -.312155859687D-09  .100000000000D+01  .188500000000D+04  .000000000000D+00
     .340000000000D+01  .000000000000D+00 -.204890966415D-07  .116000000000D+03
     .122406000000D+06  .400000000000D+01
 5 16  2 22 12  0  0.0 -.143820419908D-03  .341060513165D-11  .000000000000D+00
     .860000000000D+02  .322812500000D+02  .484663045304D-08  .153756095804D+01
     .187940895557D-05  .458328868262D-02  .109747052193D-04  .515374020004D+04
     .129600000000D+06 -.596046447754D-07  .501053324734D+00  .875443220139D-07
     .946698568698D+00  .162562500000D+03  .479669232355D+00 -.813426739632D-08
     .382158775590D-09  .100000000000D+01  .188500000000D+04  .000000000000D+00
     .240000000000D+01  .000000000000D+00 -.107102096081D-07  .860000000000D+02
     .122406000000D+06  .400000000000D+01
 6 16  2 22 12  0  0.0  .149475876242D-03  .602540239925D-11  .000000000000D+00
     .310000000000D+02 -.100687500000D+03  .446232873105D-08 -.562875651745D+00
    -.525452196598D-05  .325673376210D-03  .874884426594D-05  .515364728737D+04
     .129600000000D+06 -.614672899246D-07 -.537436714716D+00 -.745058059692D-08
     .963933351419D+00  .214687500000D+03 -.191241450628D+01 -.803712049261D-08
    -.310012913282D-09  .100000000000D+01  .188500000000D+04  .000000000000D+00
     .240000000000D+01  .000000000000D+00  .419095158577D-08  .310000000000D+02
     .122406000000D+06  .400000000000D+01
 7 16  2 22 12  0  0.0  .468510203063D-03 -.170530256582D-11  .000000000000D+00
     .930000000000D+02 -.425937500000D+02  .414160108574D-08 -.210037972861D+01
    -.233948230743D-05  .908884638920D-02  .104401260614D-04  .515367122078D+04
     .129600000000D+06 -.614672899246D-07  .263032087387D+01 -.108033418655D-06
     .967523779558D+00  .181625000000D+03 -.268258519635D+01 -.769603485646D-08
    -.447518640948D-09  .100000000000D+01  .188500000000D+04  .000000000000D+00
     .485000000000D+01  .000000000000D+00 -.111758708954D-07  .930000000000D+02
     .122406000000D+06  .400000000000D+01
 8 16  2 22 12  0  0.0 -.248365104198D-04 -.147792889038D-11  .000000000000D+00
     .540000000000D+02  .135937500000D+02  .490484716371D-08  .186909896194D+01
     .674277544022D-06  .182035844773D-02  .129081308842D-05  .515364779854D+04
     .129600000000D+06 -.931322574615D-08 -.158901260174D+01 -.223517417908D-07
     .961868536177D+00  .354125000000D+03 -.134831051537D+01 -.855357057626D-08
     .106790162525D-09  .100000000000D+01  .188500000000D+04  .000000000000D+00
     .240000000000D+01  .000000000000D+00  .465661287308D-08  .540000000000D+02
     .122406000000D+06  .400000000000D+01
